{
  "type": "FeatureCollection",
  "features": [
    {
      "type": "Feature",
      "properties": {
        "norad_id": 66911,
        "name": "1998-067XX",
        "group": "last-30-days",
        "lat": 40.91543590731708,
        "lon": -70.4898200383243,
        "alt_km": 405.63284327506335,
        "timestamp": "2025-12-10T14:53:35.947771+00:00",
        "meta_object_name": "1998-067XX",
        "meta_object_id": "1998-067XX",
        "meta_epoch": "2025-12-09T02:48:25.040736",
        "meta_mean_motion": 15.51276485,
        "meta_eccentricity": 0.00057034,
        "meta_inclination": 51.6296,
        "meta_ra_of_asc_node": 160.3494,
        "meta_arg_of_pericenter": 191.2268,
        "meta_mean_anomaly": 168.8595,
        "meta_ephemeris_type": 0,
        "meta_classification_type": "U",
        "meta_norad_cat_id": 66911,
        "meta_element_set_no": 999,
        "meta_rev_at_epoch": 104,
        "meta_bstar": 0.0014245982,
        "meta_mean_motion_dot": 0.00085582,
        "meta_mean_motion_ddot": 0,
        "tle_line1": "1 66911U 98067XX  25343.11695649  .00085582  00000+0  14246-2 0  9997",
        "tle_line2": "2 66911  51.6296 160.3494 0005703 191.2268 168.8595 15.51276485  1046"
      },
      "geometry": {
        "type": "Point",
        "coordinates": [
          -70.4898200383243,
          40.91543590731708
        ]
      }
    },
    {
      "type": "Feature",
      "properties": {
        "norad_id": 66912,
        "name": "1998-067XY",
        "group": "last-30-days",
        "lat": 48.252532795420535,
        "lon": -89.68485903167786,
        "alt_km": 408.47256060759537,
        "timestamp": "2025-12-10T14:53:35.947781+00:00",
        "meta_object_name": "1998-067XY",
        "meta_object_id": "1998-067XY",
        "meta_epoch": "2025-12-08T19:07:24.168000",
        "meta_mean_motion": 15.50590071,
        "meta_eccentricity": 0.00050436,
        "meta_inclination": 51.6301,
        "meta_ra_of_asc_node": 161.961,
        "meta_arg_of_pericenter": 202.8278,
        "meta_mean_anomaly": 157.2488,
        "meta_ephemeris_type": 0,
        "meta_classification_type": "U",
        "meta_norad_cat_id": 66912,
        "meta_element_set_no": 999,
        "meta_rev_at_epoch": 99,
        "meta_bstar": 0.0009627216,
        "meta_mean_motion_dot": 0.00056065,
        "meta_mean_motion_ddot": 0,
        "tle_line1": "1 66912U 98067XY  25342.79680750  .00056065  00000+0  96272-3 0  9992",
        "tle_line2": "2 66912  51.6301 161.9610 0005043 202.8278 157.2488 15.50590071   993"
      },
      "geometry": {
        "type": "Point",
        "coordinates": [
          -89.68485903167786,
          48.252532795420535
        ]
      }
    },
    {
      "type": "Feature",
      "properties": {
        "norad_id": 66913,
        "name": "2025-284A",
        "group": "last-30-days",
        "lat": -0.9620658178491621,
        "lon": 132.28832004116683,
        "alt_km": 519.3098468244652,
        "timestamp": "2025-12-10T14:53:35.947790+00:00",
        "meta_object_name": "2025-284A",
        "meta_object_id": "2025-284A",
        "meta_epoch": "2025-12-10T06:59:32.543232",
        "meta_mean_motion": 15.18889288,
        "meta_eccentricity": 0.00119441,
        "meta_inclination": 80.4046,
        "meta_ra_of_asc_node": 132.8683,
        "meta_arg_of_pericenter": 211.9522,
        "meta_mean_anomaly": 148.0982,
        "meta_ephemeris_type": 0,
        "meta_classification_type": "U",
        "meta_norad_cat_id": 66913,
        "meta_element_set_no": 999,
        "meta_rev_at_epoch": 75,
        "meta_bstar": 0.00057221807,
        "meta_mean_motion_dot": 0.00011983,
        "meta_mean_motion_ddot": 0,
        "tle_line1": "1 66913U 25284A   25344.29134888  .00011983  00000+0  57222-3 0  9999",
        "tle_line2": "2 66913  80.4046 132.8683 0011944 211.9522 148.0982 15.18889288   753"
      },
      "geometry": {
        "type": "Point",
        "coordinates": [
          132.28832004116683,
          -0.9620658178491621
        ]
      }
    },
    {
      "type": "Feature",
      "properties": {
        "norad_id": 66914,
        "name": "2025-284B",
        "group": "last-30-days",
        "lat": 1.5234728793229144,
        "lon": 132.70933011907172,
        "alt_km": 513.8606377200158,
        "timestamp": "2025-12-10T14:53:35.947800+00:00",
        "meta_object_name": "2025-284B",
        "meta_object_id": "2025-284B",
        "meta_epoch": "2025-12-10T06:58:51.843648",
        "meta_mean_motion": 15.18843698,
        "meta_eccentricity": 0.00081585,
        "meta_inclination": 80.4056,
        "meta_ra_of_asc_node": 132.8693,
        "meta_arg_of_pericenter": 254.6684,
        "meta_mean_anomaly": 105.3642,
        "meta_ephemeris_type": 0,
        "meta_classification_type": "U",
        "meta_norad_cat_id": 66914,
        "meta_element_set_no": 999,
        "meta_rev_at_epoch": 75,
        "meta_bstar": 0.00070602257,
        "meta_mean_motion_dot": 0.00014751,
        "meta_mean_motion_ddot": 0,
        "tle_line1": "1 66914U 25284B   25344.29087782  .00014751  00000+0  70602-3 0  9993",
        "tle_line2": "2 66914  80.4056 132.8693 0008158 254.6684 105.3642 15.18843698   756"
      },
      "geometry": {
        "type": "Point",
        "coordinates": [
          132.70933011907172,
          1.5234728793229144
        ]
      }
    },
    {
      "type": "Feature",
      "properties": {
        "norad_id": 66915,
        "name": "HULIANWANG DIGUI 14A",
        "group": "last-30-days",
        "lat": -49.394760615364966,
        "lon": 24.242509143217667,
        "alt_km": 873.6609843498054,
        "timestamp": "2025-12-10T14:53:35.947809+00:00",
        "meta_object_name": "HULIANWANG DIGUI 14A",
        "meta_object_id": "2025-285A",
        "meta_epoch": "2025-12-10T05:07:00.829056",
        "meta_mean_motion": 14.0546633,
        "meta_eccentricity": 0.00081047,
        "meta_inclination": 50.0034,
        "meta_ra_of_asc_node": 127.5821,
        "meta_arg_of_pericenter": 274.1801,
        "meta_mean_anomaly": 85.8178,
        "meta_ephemeris_type": 0,
        "meta_classification_type": "U",
        "meta_norad_cat_id": 66915,
        "meta_element_set_no": 999,
        "meta_rev_at_epoch": 55,
        "meta_bstar": 1.2826406e-05,
        "meta_mean_motion_dot": -1.31e-06,
        "meta_mean_motion_ddot": 0,
        "tle_line1": "1 66915U 25285A   25344.21320404 -.00000131  00000+0  12826-4 0  9991",
        "tle_line2": "2 66915  50.0034 127.5821 0008104 274.1801  85.8178 14.05466330   552"
      },
      "geometry": {
        "type": "Point",
        "coordinates": [
          24.242509143217667,
          -49.394760615364966
        ]
      }
    },
    {
      "type": "Feature",
      "properties": {
        "norad_id": 66916,
        "name": "HULIANWANG DIGUI 14B",
        "group": "last-30-days",
        "lat": -49.50870507634952,
        "lon": 25.40734962261823,
        "alt_km": 874.2198511572296,
        "timestamp": "2025-12-10T14:53:35.947819+00:00",
        "meta_object_name": "HULIANWANG DIGUI 14B",
        "meta_object_id": "2025-285B",
        "meta_epoch": "2025-12-10T05:06:49.310208",
        "meta_mean_motion": 14.05512718,
        "meta_eccentricity": 0.00069603,
        "meta_inclination": 50.0045,
        "meta_ra_of_asc_node": 127.5825,
        "meta_arg_of_pericenter": 268.8886,
        "meta_mean_anomaly": 91.1222,
        "meta_ephemeris_type": 0,
        "meta_classification_type": "U",
        "meta_norad_cat_id": 66916,
        "meta_element_set_no": 999,
        "meta_rev_at_epoch": 55,
        "meta_bstar": 1.2834393e-05,
        "meta_mean_motion_dot": -1.31e-06,
        "meta_mean_motion_ddot": 0,
        "tle_line1": "1 66916U 25285B   25344.21307072 -.00000131  00000+0  12834-4 0  9997",
        "tle_line2": "2 66916  50.0045 127.5825 0006960 268.8886  91.1222 14.05512718   552"
      },
      "geometry": {
        "type": "Point",
        "coordinates": [
          25.40734962261823,
          -49.50870507634952
        ]
      }
    },
    {
      "type": "Feature",
      "properties": {
        "norad_id": 66917,
        "name": "HULIANWANG DIGUI 14C",
        "group": "last-30-days",
        "lat": -49.64363613360247,
        "lon": 27.045753380283717,
        "alt_km": 873.6973512223249,
        "timestamp": "2025-12-10T14:53:35.947827+00:00",
        "meta_object_name": "HULIANWANG DIGUI 14C",
        "meta_object_id": "2025-285C",
        "meta_epoch": "2025-12-10T06:48:55.154880",
        "meta_mean_motion": 14.05578819,
        "meta_eccentricity": 0.00075322,
        "meta_inclination": 50.0009,
        "meta_ra_of_asc_node": 127.2877,
        "meta_arg_of_pericenter": 276.7703,
        "meta_mean_anomaly": 83.2344,
        "meta_ephemeris_type": 0,
        "meta_classification_type": "U",
        "meta_norad_cat_id": 66917,
        "meta_element_set_no": 999,
        "meta_rev_at_epoch": 56,
        "meta_bstar": -1.469388e-06,
        "meta_mean_motion_dot": -1.54e-06,
        "meta_mean_motion_ddot": 0,
        "tle_line1": "1 66917U 25285C   25344.28397170 -.00000154  00000+0 -14694-5 0  9996",
        "tle_line2": "2 66917  50.0009 127.2877 0007532 276.7703  83.2344 14.05578819   561"
      },
      "geometry": {
        "type": "Point",
        "coordinates": [
          27.045753380283717,
          -49.64363613360247
        ]
      }
    }
  ]
}